{"fetched_at":"2026-03-30T09:12:31Z","count":15922,"tles":[{"name":"STARLINK-31767","line1":"1 59605U 24080E   26087.86822717  .00007555  00000+0  28368-3 0  9994","line2":"2 59605  43.0028 289.7835 0001089 294.4213  65.6525 15.27593000107468","category":"Starlink"}]}